GOES 1 (SMS-C)          
1 08366U 75100A   26065.55764232  .00000009  00000+0  00000+0 0  9996
2 08366   4.8691 278.7247 0005394   0.1507 325.2364  1.00237864184036
GOES 2                  
1 10061U 77048A   26065.60314251 -.00000209  00000+0  00000+0 0  9995
2 10061   6.6640 294.2028 0013901  47.8264 148.1261  0.99396154 45259
GOES 3                  
1 10953U 78062A   26065.54022994 -.00000302  00000+0  00000+0 0  9999
2 10953   7.1341 300.0342 0002707 356.3567 213.8345  0.99365893127513
GOES 4                  
1 11964U 80074A   26065.49828310 -.00000203  00000+0  00000+0 0  9998
2 11964   8.2077 303.7169 0032134 103.0879 236.5592  0.99230280126416
GOES 5                  
1 12472U 81049A   26065.20734179 -.00000195  00000+0  00000+0 0  9994
2 12472   9.5428 316.3313 0004652 337.3827 215.8254  1.00211123121817
GOES 6                  
1 14050U 83041A   26065.27450875 -.00000070  00000+0  00000+0 0  9999
2 14050  10.3545 321.8887 0002335 307.3462 243.7345  1.00217834214983
GOES 7                  
1 17561U 87022A   26065.34080905  .00000086  00000+0  00000+0 0  9999
2 17561  13.0191 338.3610 0003972  15.0189 157.5432  0.99895339125938
GOES 8                  
1 23051U 94022A   26065.53572801 -.00000279  00000+0  00000+0 0  9995
2 23051  14.3424  14.4543 0005055  14.7004 125.4807  0.98908193123115
GOES 9                  
1 23581U 95025A   26065.34964910 -.00000037  00000+0  00000+0 0  9994
2 23581  13.8717  15.2993 0003579 210.7409 333.4406  0.98798225111741
GOES 10                 
1 24786U 97019A   26065.38509593 -.00000030  00000+0  00000+0 0  9996
2 24786  13.0063  21.8327 0030896 239.2566 129.5110  0.99121961105052
GOES 11                 
1 26352U 00022A   26065.42210276 -.00000063  00000+0  00000+0 0  9993
2 26352  11.5847  47.4240 0005918 255.0849 288.6935  0.99040349 51457
GOES 12                 
1 26871U 01031A   26065.35415579 -.00000162  00000+0  00000+0 0  9995
2 26871  11.9985  38.1263 0008752 296.2176 249.5219  0.99136532 89745
EWS-G1 (GOES 13)        
1 29155U 06018A   26065.55712232  .00000048  00000+0  00000+0 0  9993
2 29155   4.2664  77.6757 0062015 273.3075 251.1869  0.98785504 42235
GOES 16                 
1 41866U 16071A   26065.56084899 -.00000095  00000+0  00000+0 0  9991
2 41866   0.1362  89.1476 0002391 221.4894 310.8421  1.00271524 34074
GOES 17                 
1 43226U 18022A   26065.56388235 -.00000186  00000+0  00000+0 0  9993
2 43226   0.6735  87.5071 0002128 225.3094 324.9405  1.00270160 29393
