[{"OBJECT_NAME":"GOES 1 (SMS-C)","OBJECT_ID":"1975-100A","EPOCH":"2026-03-06T13:23:00.296448","MEAN_MOTION":1.00237864,"ECCENTRICITY":0.00053945,"INCLINATION":4.8691,"RA_OF_ASC_NODE":278.7247,"ARG_OF_PERICENTER":0.1507,"MEAN_ANOMALY":325.2364,"EPHEMERIS_TYPE":0,"CLASSIFICATION_TYPE":"U","NORAD_CAT_ID":8366,"ELEMENT_SET_NO":999,"REV_AT_EPOCH":18403,"BSTAR":0,"MEAN_MOTION_DOT":9.0e-8,"MEAN_MOTION_DDOT":0},{"OBJECT_NAME":"GOES 2","OBJECT_ID":"1977-048A","EPOCH":"2026-03-06T14:28:31.512864","MEAN_MOTION":0.99396154,"ECCENTRICITY":0.00139019,"INCLINATION":6.664,"RA_OF_ASC_NODE":294.2028,"ARG_OF_PERICENTER":47.8264,"MEAN_ANOMALY":148.1261,"EPHEMERIS_TYPE":0,"CLASSIFICATION_TYPE":"U","NORAD_CAT_ID":10061,"ELEMENT_SET_NO":999,"REV_AT_EPOCH":4525,"BSTAR":0,"MEAN_MOTION_DOT":-2.09e-6,"MEAN_MOTION_DDOT":0},{"OBJECT_NAME":"GOES 3","OBJECT_ID":"1978-062A","EPOCH":"2026-03-06T12:57:55.866816","MEAN_MOTION":0.99365893,"ECCENTRICITY":0.00027072,"INCLINATION":7.1341,"RA_OF_ASC_NODE":300.0342,"ARG_OF_PERICENTER":356.3567,"MEAN_ANOMALY":213.8345,"EPHEMERIS_TYPE":0,"CLASSIFICATION_TYPE":"U","NORAD_CAT_ID":10953,"ELEMENT_SET_NO":999,"REV_AT_EPOCH":12751,"BSTAR":0,"MEAN_MOTION_DOT":-3.02e-6,"MEAN_MOTION_DDOT":0},{"OBJECT_NAME":"GOES 4","OBJECT_ID":"1980-074A","EPOCH":"2026-03-06T11:57:31.659840","MEAN_MOTION":0.9923028,"ECCENTRICITY":0.00321345,"INCLINATION":8.2077,"RA_OF_ASC_NODE":303.7169,"ARG_OF_PERICENTER":103.0879,"MEAN_ANOMALY":236.5592,"EPHEMERIS_TYPE":0,"CLASSIFICATION_TYPE":"U","NORAD_CAT_ID":11964,"ELEMENT_SET_NO":999,"REV_AT_EPOCH":12641,"BSTAR":0,"MEAN_MOTION_DOT":-2.03e-6,"MEAN_MOTION_DDOT":0},{"OBJECT_NAME":"GOES 5","OBJECT_ID":"1981-049A","EPOCH":"2026-03-06T04:58:34.330656","MEAN_MOTION":1.00211123,"ECCENTRICITY":0.00046527,"INCLINATION":9.5428,"RA_OF_ASC_NODE":316.3313,"ARG_OF_PERICENTER":337.3827,"MEAN_ANOMALY":215.8254,"EPHEMERIS_TYPE":0,"CLASSIFICATION_TYPE":"U","NORAD_CAT_ID":12472,"ELEMENT_SET_NO":999,"REV_AT_EPOCH":12181,"BSTAR":0,"MEAN_MOTION_DOT":-1.95e-6,"MEAN_MOTION_DDOT":0},{"OBJECT_NAME":"GOES 6","OBJECT_ID":"1983-041A","EPOCH":"2026-03-06T06:35:17.556000","MEAN_MOTION":1.00217834,"ECCENTRICITY":0.00023354,"INCLINATION":10.3545,"RA_OF_ASC_NODE":321.8887,"ARG_OF_PERICENTER":307.3462,"MEAN_ANOMALY":243.7345,"EPHEMERIS_TYPE":0,"CLASSIFICATION_TYPE":"U","NORAD_CAT_ID":14050,"ELEMENT_SET_NO":999,"REV_AT_EPOCH":21498,"BSTAR":0,"MEAN_MOTION_DOT":-7.0e-7,"MEAN_MOTION_DDOT":0},{"OBJECT_NAME":"GOES 7","OBJECT_ID":"1987-022A","EPOCH":"2026-03-06T08:10:45.901920","MEAN_MOTION":0.99895339,"ECCENTRICITY":0.00039726,"INCLINATION":13.0191,"RA_OF_ASC_NODE":338.361,"ARG_OF_PERICENTER":15.0189,"MEAN_ANOMALY":157.5432,"EPHEMERIS_TYPE":0,"CLASSIFICATION_TYPE":"U","NORAD_CAT_ID":17561,"ELEMENT_SET_NO":999,"REV_AT_EPOCH":12593,"BSTAR":0,"MEAN_MOTION_DOT":8.6e-7,"MEAN_MOTION_DDOT":0},{"OBJECT_NAME":"GOES 8","OBJECT_ID":"1994-022A","EPOCH":"2026-03-06T12:51:26.900064","MEAN_MOTION":0.98908193,"ECCENTRICITY":0.00050555,"INCLINATION":14.3424,"RA_OF_ASC_NODE":14.4543,"ARG_OF_PERICENTER":14.7004,"MEAN_ANOMALY":125.4807,"EPHEMERIS_TYPE":0,"CLASSIFICATION_TYPE":"U","NORAD_CAT_ID":23051,"ELEMENT_SET_NO":999,"REV_AT_EPOCH":12311,"BSTAR":0,"MEAN_MOTION_DOT":-2.79e-6,"MEAN_MOTION_DDOT":0},{"OBJECT_NAME":"GOES 9","OBJECT_ID":"1995-025A","EPOCH":"2026-03-06T08:23:29.682240","MEAN_MOTION":0.98798225,"ECCENTRICITY":0.00035791,"INCLINATION":13.8717,"RA_OF_ASC_NODE":15.2993,"ARG_OF_PERICENTER":210.7409,"MEAN_ANOMALY":333.4406,"EPHEMERIS_TYPE":0,"CLASSIFICATION_TYPE":"U","NORAD_CAT_ID":23581,"ELEMENT_SET_NO":999,"REV_AT_EPOCH":11174,"BSTAR":0,"MEAN_MOTION_DOT":-3.7e-7,"MEAN_MOTION_DDOT":0},{"OBJECT_NAME":"GOES 10","OBJECT_ID":"1997-019A","EPOCH":"2026-03-06T09:14:32.288352","MEAN_MOTION":0.99121961,"ECCENTRICITY":0.00308963,"INCLINATION":13.0063,"RA_OF_ASC_NODE":21.8327,"ARG_OF_PERICENTER":239.2566,"MEAN_ANOMALY":129.511,"EPHEMERIS_TYPE":0,"CLASSIFICATION_TYPE":"U","NORAD_CAT_ID":24786,"ELEMENT_SET_NO":999,"REV_AT_EPOCH":10505,"BSTAR":0,"MEAN_MOTION_DOT":-3.0e-7,"MEAN_MOTION_DDOT":0},{"OBJECT_NAME":"GOES 11","OBJECT_ID":"2000-022A","EPOCH":"2026-03-06T10:07:49.678464","MEAN_MOTION":0.99040349,"ECCENTRICITY":0.00059183,"INCLINATION":11.5847,"RA_OF_ASC_NODE":47.424,"ARG_OF_PERICENTER":255.0849,"MEAN_ANOMALY":288.6935,"EPHEMERIS_TYPE":0,"CLASSIFICATION_TYPE":"U","NORAD_CAT_ID":26352,"ELEMENT_SET_NO":999,"REV_AT_EPOCH":5145,"BSTAR":0,"MEAN_MOTION_DOT":-6.3e-7,"MEAN_MOTION_DDOT":0},{"OBJECT_NAME":"GOES 12","OBJECT_ID":"2001-031A","EPOCH":"2026-03-06T08:29:59.060256","MEAN_MOTION":0.99136532,"ECCENTRICITY":0.00087527,"INCLINATION":11.9985,"RA_OF_ASC_NODE":38.1263,"ARG_OF_PERICENTER":296.2176,"MEAN_ANOMALY":249.5219,"EPHEMERIS_TYPE":0,"CLASSIFICATION_TYPE":"U","NORAD_CAT_ID":26871,"ELEMENT_SET_NO":999,"REV_AT_EPOCH":8974,"BSTAR":0,"MEAN_MOTION_DOT":-1.62e-6,"MEAN_MOTION_DDOT":0},{"OBJECT_NAME":"EWS-G1 (GOES 13)","OBJECT_ID":"2006-018A","EPOCH":"2026-03-06T13:22:15.368448","MEAN_MOTION":0.98785504,"ECCENTRICITY":0.00620159,"INCLINATION":4.2664,"RA_OF_ASC_NODE":77.6757,"ARG_OF_PERICENTER":273.3075,"MEAN_ANOMALY":251.1869,"EPHEMERIS_TYPE":0,"CLASSIFICATION_TYPE":"U","NORAD_CAT_ID":29155,"ELEMENT_SET_NO":999,"REV_AT_EPOCH":4223,"BSTAR":0,"MEAN_MOTION_DOT":4.8e-7,"MEAN_MOTION_DDOT":0},{"OBJECT_NAME":"GOES 16","OBJECT_ID":"2016-071A","EPOCH":"2026-03-06T13:27:37.352736","MEAN_MOTION":1.00271524,"ECCENTRICITY":0.00023914,"INCLINATION":0.1362,"RA_OF_ASC_NODE":89.1476,"ARG_OF_PERICENTER":221.4894,"MEAN_ANOMALY":310.8421,"EPHEMERIS_TYPE":0,"CLASSIFICATION_TYPE":"U","NORAD_CAT_ID":41866,"ELEMENT_SET_NO":999,"REV_AT_EPOCH":3407,"BSTAR":0,"MEAN_MOTION_DOT":-9.5e-7,"MEAN_MOTION_DDOT":0},{"OBJECT_NAME":"GOES 17","OBJECT_ID":"2018-022A","EPOCH":"2026-03-06T13:31:59.435040","MEAN_MOTION":1.0027016,"ECCENTRICITY":0.00021284,"INCLINATION":0.6735,"RA_OF_ASC_NODE":87.5071,"ARG_OF_PERICENTER":225.3094,"MEAN_ANOMALY":324.9405,"EPHEMERIS_TYPE":0,"CLASSIFICATION_TYPE":"U","NORAD_CAT_ID":43226,"ELEMENT_SET_NO":999,"REV_AT_EPOCH":2939,"BSTAR":0,"MEAN_MOTION_DOT":-1.86e-6,"MEAN_MOTION_DDOT":0}]
